ORBCOMM FM103           
1 40091U 14040F   24271.13270455  .00002185  00000+0  51700-3 0  9997
2 40091  47.0042 179.2663 0001677 164.6643 195.4294 14.57112527542783
ORBCOMM FM114           
1 41179U 15081A   24270.88780758  .00003018  00000+0  70059-3 0  9998
2 41179  47.0014  89.6190 0002993 226.1887 133.8750 14.57067471466050
ORBCOMM FM119           
1 41180U 15081B   24271.54954171  .00002230  00000+0  52715-3 0  9990
2 41180  47.0016 355.7291 0002285 279.1393  80.9233 14.57095495467402
ORBCOMM FM105           
1 41181U 15081C   24271.47266860  .00001017  00000+0  33593-3 0  9999
2 41181  47.0030 335.9216 0002500 238.2699 121.7937 14.44666838462862
ORBCOMM FM110           
1 41182U 15081D   24270.93253116  .00002659  00000+0  62180-3 0  9997
2 41182  47.0007  88.7925 0000923 334.5610  25.5230 14.57058567465933
ORBCOMM FM118           
1 41183U 15081E   24270.91065074  .00002021  00000+0  48158-3 0  9992
2 41183  47.0038  89.2386 0001221 353.7589   6.3280 14.57059813466034
ORBCOMM FM112           
1 41184U 15081F   24271.52697465  .00003321  00000+0  76722-3 0  9998
2 41184  46.9997 355.0337 0002697 267.6950  92.3626 14.57069549467396
ORBCOMM FM113           
1 41185U 15081G   24270.40683911  .00003364  00000+0  77661-3 0  9996
2 41185  47.0021   0.6015 0002391 275.9874  84.0738 14.57076393467163
