<?xml version="1.0" encoding="UTF-8"?>
<ndm xmlns:xsi="http://www.w3.org/2001/XMLSchema-instance" xsi:noNamespaceSchemaLocation="https://sanaregistry.org/r/ndmxml_unqualified/ndmxml-2.0.0-master-2.0.xsd">
<omm id="CCSDS_OMM_VERS" version="2.0">
<header><CREATION_DATE/><ORIGINATOR/></header><body><segment><metadata><OBJECT_NAME>ORBCOMM FM103</OBJECT_NAME><OBJECT_ID>2014-040F</OBJECT_ID><CENTER_NAME>EARTH</CENTER_NAME><REF_FRAME>TEME</REF_FRAME><TIME_SYSTEM>UTC</TIME_SYSTEM><MEAN_ELEMENT_THEORY>SGP4</MEAN_ELEMENT_THEORY></metadata><data><meanElements><EPOCH>2024-09-27T03:11:05.673120</EPOCH><MEAN_MOTION>14.57112527</MEAN_MOTION><ECCENTRICITY>.0001677</ECCENTRICITY><INCLINATION>47.0042</INCLINATION><RA_OF_ASC_NODE>179.2663</RA_OF_ASC_NODE><ARG_OF_PERICENTER>164.6643</ARG_OF_PERICENTER><MEAN_ANOMALY>195.4294</MEAN_ANOMALY></meanElements><tleParameters><EPHEMERIS_TYPE>0</EPHEMERIS_TYPE><CLASSIFICATION_TYPE>U</CLASSIFICATION_TYPE><NORAD_CAT_ID>40091</NORAD_CAT_ID><ELEMENT_SET_NO>999</ELEMENT_SET_NO><REV_AT_EPOCH>54278</REV_AT_EPOCH><BSTAR>.517E-3</BSTAR><MEAN_MOTION_DOT>.2185E-4</MEAN_MOTION_DOT><MEAN_MOTION_DDOT>0</MEAN_MOTION_DDOT></tleParameters></data></segment></body></omm>
<omm id="CCSDS_OMM_VERS" version="2.0">
<header><CREATION_DATE/><ORIGINATOR/></header><body><segment><metadata><OBJECT_NAME>ORBCOMM FM114</OBJECT_NAME><OBJECT_ID>2015-081A</OBJECT_ID><CENTER_NAME>EARTH</CENTER_NAME><REF_FRAME>TEME</REF_FRAME><TIME_SYSTEM>UTC</TIME_SYSTEM><MEAN_ELEMENT_THEORY>SGP4</MEAN_ELEMENT_THEORY></metadata><data><meanElements><EPOCH>2024-09-26T21:18:26.574912</EPOCH><MEAN_MOTION>14.57067471</MEAN_MOTION><ECCENTRICITY>.0002993</ECCENTRICITY><INCLINATION>47.0014</INCLINATION><RA_OF_ASC_NODE>89.6190</RA_OF_ASC_NODE><ARG_OF_PERICENTER>226.1887</ARG_OF_PERICENTER><MEAN_ANOMALY>133.8750</MEAN_ANOMALY></meanElements><tleParameters><EPHEMERIS_TYPE>0</EPHEMERIS_TYPE><CLASSIFICATION_TYPE>U</CLASSIFICATION_TYPE><NORAD_CAT_ID>41179</NORAD_CAT_ID><ELEMENT_SET_NO>999</ELEMENT_SET_NO><REV_AT_EPOCH>46605</REV_AT_EPOCH><BSTAR>.70059E-3</BSTAR><MEAN_MOTION_DOT>.3018E-4</MEAN_MOTION_DOT><MEAN_MOTION_DDOT>0</MEAN_MOTION_DDOT></tleParameters></data></segment></body></omm>
<omm id="CCSDS_OMM_VERS" version="2.0">
<header><CREATION_DATE/><ORIGINATOR/></header><body><segment><metadata><OBJECT_NAME>ORBCOMM FM119</OBJECT_NAME><OBJECT_ID>2015-081B</OBJECT_ID><CENTER_NAME>EARTH</CENTER_NAME><REF_FRAME>TEME</REF_FRAME><TIME_SYSTEM>UTC</TIME_SYSTEM><MEAN_ELEMENT_THEORY>SGP4</MEAN_ELEMENT_THEORY></metadata><data><meanElements><EPOCH>2024-09-27T13:11:20.403744</EPOCH><MEAN_MOTION>14.57095495</MEAN_MOTION><ECCENTRICITY>.0002285</ECCENTRICITY><INCLINATION>47.0016</INCLINATION><RA_OF_ASC_NODE>355.7291</RA_OF_ASC_NODE><ARG_OF_PERICENTER>279.1393</ARG_OF_PERICENTER><MEAN_ANOMALY>80.9233</MEAN_ANOMALY></meanElements><tleParameters><EPHEMERIS_TYPE>0</EPHEMERIS_TYPE><CLASSIFICATION_TYPE>U</CLASSIFICATION_TYPE><NORAD_CAT_ID>41180</NORAD_CAT_ID><ELEMENT_SET_NO>999</ELEMENT_SET_NO><REV_AT_EPOCH>46740</REV_AT_EPOCH><BSTAR>.52715E-3</BSTAR><MEAN_MOTION_DOT>.223E-4</MEAN_MOTION_DOT><MEAN_MOTION_DDOT>0</MEAN_MOTION_DDOT></tleParameters></data></segment></body></omm>
<omm id="CCSDS_OMM_VERS" version="2.0">
<header><CREATION_DATE/><ORIGINATOR/></header><body><segment><metadata><OBJECT_NAME>ORBCOMM FM105</OBJECT_NAME><OBJECT_ID>2015-081C</OBJECT_ID><CENTER_NAME>EARTH</CENTER_NAME><REF_FRAME>TEME</REF_FRAME><TIME_SYSTEM>UTC</TIME_SYSTEM><MEAN_ELEMENT_THEORY>SGP4</MEAN_ELEMENT_THEORY></metadata><data><meanElements><EPOCH>2024-09-27T11:20:38.567040</EPOCH><MEAN_MOTION>14.44666838</MEAN_MOTION><ECCENTRICITY>.00025</ECCENTRICITY><INCLINATION>47.0030</INCLINATION><RA_OF_ASC_NODE>335.9216</RA_OF_ASC_NODE><ARG_OF_PERICENTER>238.2699</ARG_OF_PERICENTER><MEAN_ANOMALY>121.7937</MEAN_ANOMALY></meanElements><tleParameters><EPHEMERIS_TYPE>0</EPHEMERIS_TYPE><CLASSIFICATION_TYPE>U</CLASSIFICATION_TYPE><NORAD_CAT_ID>41181</NORAD_CAT_ID><ELEMENT_SET_NO>999</ELEMENT_SET_NO><REV_AT_EPOCH>46286</REV_AT_EPOCH><BSTAR>.33593E-3</BSTAR><MEAN_MOTION_DOT>.1017E-4</MEAN_MOTION_DOT><MEAN_MOTION_DDOT>0</MEAN_MOTION_DDOT></tleParameters></data></segment></body></omm>
<omm id="CCSDS_OMM_VERS" version="2.0">
<header><CREATION_DATE/><ORIGINATOR/></header><body><segment><metadata><OBJECT_NAME>ORBCOMM FM110</OBJECT_NAME><OBJECT_ID>2015-081D</OBJECT_ID><CENTER_NAME>EARTH</CENTER_NAME><REF_FRAME>TEME</REF_FRAME><TIME_SYSTEM>UTC</TIME_SYSTEM><MEAN_ELEMENT_THEORY>SGP4</MEAN_ELEMENT_THEORY></metadata><data><meanElements><EPOCH>2024-09-26T22:22:50.692224</EPOCH><MEAN_MOTION>14.57058567</MEAN_MOTION><ECCENTRICITY>.0000923</ECCENTRICITY><INCLINATION>47.0007</INCLINATION><RA_OF_ASC_NODE>88.7925</RA_OF_ASC_NODE><ARG_OF_PERICENTER>334.5610</ARG_OF_PERICENTER><MEAN_ANOMALY>25.5230</MEAN_ANOMALY></meanElements><tleParameters><EPHEMERIS_TYPE>0</EPHEMERIS_TYPE><CLASSIFICATION_TYPE>U</CLASSIFICATION_TYPE><NORAD_CAT_ID>41182</NORAD_CAT_ID><ELEMENT_SET_NO>999</ELEMENT_SET_NO><REV_AT_EPOCH>46593</REV_AT_EPOCH><BSTAR>.6218E-3</BSTAR><MEAN_MOTION_DOT>.2659E-4</MEAN_MOTION_DOT><MEAN_MOTION_DDOT>0</MEAN_MOTION_DDOT></tleParameters></data></segment></body></omm>
<omm id="CCSDS_OMM_VERS" version="2.0">
<header><CREATION_DATE/><ORIGINATOR/></header><body><segment><metadata><OBJECT_NAME>ORBCOMM FM118</OBJECT_NAME><OBJECT_ID>2015-081E</OBJECT_ID><CENTER_NAME>EARTH</CENTER_NAME><REF_FRAME>TEME</REF_FRAME><TIME_SYSTEM>UTC</TIME_SYSTEM><MEAN_ELEMENT_THEORY>SGP4</MEAN_ELEMENT_THEORY></metadata><data><meanElements><EPOCH>2024-09-26T21:51:20.223936</EPOCH><MEAN_MOTION>14.57059813</MEAN_MOTION><ECCENTRICITY>.0001221</ECCENTRICITY><INCLINATION>47.0038</INCLINATION><RA_OF_ASC_NODE>89.2386</RA_OF_ASC_NODE><ARG_OF_PERICENTER>353.7589</ARG_OF_PERICENTER><MEAN_ANOMALY>6.3280</MEAN_ANOMALY></meanElements><tleParameters><EPHEMERIS_TYPE>0</EPHEMERIS_TYPE><CLASSIFICATION_TYPE>U</CLASSIFICATION_TYPE><NORAD_CAT_ID>41183</NORAD_CAT_ID><ELEMENT_SET_NO>999</ELEMENT_SET_NO><REV_AT_EPOCH>46603</REV_AT_EPOCH><BSTAR>.48158E-3</BSTAR><MEAN_MOTION_DOT>.2021E-4</MEAN_MOTION_DOT><MEAN_MOTION_DDOT>0</MEAN_MOTION_DDOT></tleParameters></data></segment></body></omm>
<omm id="CCSDS_OMM_VERS" version="2.0">
<header><CREATION_DATE/><ORIGINATOR/></header><body><segment><metadata><OBJECT_NAME>ORBCOMM FM112</OBJECT_NAME><OBJECT_ID>2015-081F</OBJECT_ID><CENTER_NAME>EARTH</CENTER_NAME><REF_FRAME>TEME</REF_FRAME><TIME_SYSTEM>UTC</TIME_SYSTEM><MEAN_ELEMENT_THEORY>SGP4</MEAN_ELEMENT_THEORY></metadata><data><meanElements><EPOCH>2024-09-27T12:38:50.609760</EPOCH><MEAN_MOTION>14.57069549</MEAN_MOTION><ECCENTRICITY>.0002697</ECCENTRICITY><INCLINATION>46.9997</INCLINATION><RA_OF_ASC_NODE>355.0337</RA_OF_ASC_NODE><ARG_OF_PERICENTER>267.6950</ARG_OF_PERICENTER><MEAN_ANOMALY>92.3626</MEAN_ANOMALY></meanElements><tleParameters><EPHEMERIS_TYPE>0</EPHEMERIS_TYPE><CLASSIFICATION_TYPE>U</CLASSIFICATION_TYPE><NORAD_CAT_ID>41184</NORAD_CAT_ID><ELEMENT_SET_NO>999</ELEMENT_SET_NO><REV_AT_EPOCH>46739</REV_AT_EPOCH><BSTAR>.76722E-3</BSTAR><MEAN_MOTION_DOT>.3321E-4</MEAN_MOTION_DOT><MEAN_MOTION_DDOT>0</MEAN_MOTION_DDOT></tleParameters></data></segment></body></omm>
<omm id="CCSDS_OMM_VERS" version="2.0">
<header><CREATION_DATE/><ORIGINATOR/></header><body><segment><metadata><OBJECT_NAME>ORBCOMM FM113</OBJECT_NAME><OBJECT_ID>2015-081G</OBJECT_ID><CENTER_NAME>EARTH</CENTER_NAME><REF_FRAME>TEME</REF_FRAME><TIME_SYSTEM>UTC</TIME_SYSTEM><MEAN_ELEMENT_THEORY>SGP4</MEAN_ELEMENT_THEORY></metadata><data><meanElements><EPOCH>2024-09-26T09:45:50.899104</EPOCH><MEAN_MOTION>14.57076393</MEAN_MOTION><ECCENTRICITY>.0002391</ECCENTRICITY><INCLINATION>47.0021</INCLINATION><RA_OF_ASC_NODE>0.6015</RA_OF_ASC_NODE><ARG_OF_PERICENTER>275.9874</ARG_OF_PERICENTER><MEAN_ANOMALY>84.0738</MEAN_ANOMALY></meanElements><tleParameters><EPHEMERIS_TYPE>0</EPHEMERIS_TYPE><CLASSIFICATION_TYPE>U</CLASSIFICATION_TYPE><NORAD_CAT_ID>41185</NORAD_CAT_ID><ELEMENT_SET_NO>999</ELEMENT_SET_NO><REV_AT_EPOCH>46716</REV_AT_EPOCH><BSTAR>.77661E-3</BSTAR><MEAN_MOTION_DOT>.3364E-4</MEAN_MOTION_DOT><MEAN_MOTION_DDOT>0</MEAN_MOTION_DDOT></tleParameters></data></segment></body></omm>

</ndm>
